[{"OBJECT_NAME":"STARLINK-3675","OBJECT_ID":"2022-025H","EPOCH":"2026-03-09T04:04:59.875680","MEAN_MOTION":15.30188338,"ECCENTRICITY":0.00013782,"INCLINATION":53.1619,"RA_OF_ASC_NODE":15.9713,"ARG_OF_PERICENTER":90.338,"MEAN_ANOMALY":269.7779,"EPHEMERIS_TYPE":0,"CLASSIFICATION_TYPE":"U","NORAD_CAT_ID":51963,"ELEMENT_SET_NO":999,"REV_AT_EPOCH":22109,"BSTAR":-0.00010047767,"MEAN_MOTION_DOT":-3.333e-5,"MEAN_MOTION_DDOT":0},{"OBJECT_NAME":"UTMN 2 (RS27S)","OBJECT_ID":"2023-091AP","EPOCH":"2026-03-09T23:09:07.917408","MEAN_MOTION":15.29495965,"ECCENTRICITY":0.00097379,"INCLINATION":97.5194,"RA_OF_ASC_NODE":134.949,"ARG_OF_PERICENTER":76.0788,"MEAN_ANOMALY":284.1534,"EPHEMERIS_TYPE":0,"CLASSIFICATION_TYPE":"U","NORAD_CAT_ID":57203,"ELEMENT_SET_NO":999,"REV_AT_EPOCH":14936,"BSTAR":0.00056135701,"MEAN_MOTION_DOT":0.00016013,"MEAN_MOTION_DDOT":0}]
